[{"OBJECT_NAME":"STARLINK-34345","OBJECT_ID":"2025-112H","EPOCH":"2026-03-09T17:15:00.035424","MEAN_MOTION":15.05657866,"ECCENTRICITY":0.00010955,"INCLINATION":97.602,"RA_OF_ASC_NODE":121.5609,"ARG_OF_PERICENTER":137.5756,"MEAN_ANOMALY":222.5555,"EPHEMERIS_TYPE":0,"CLASSIFICATION_TYPE":"U","NORAD_CAT_ID":64153,"ELEMENT_SET_NO":999,"REV_AT_EPOCH":4331,"BSTAR":0.00038783204,"MEAN_MOTION_DOT":5.541e-5,"MEAN_MOTION_DDOT":0},{"OBJECT_NAME":"COSMOS 252 DEB","OBJECT_ID":"1968-097M","EPOCH":"2026-03-09T21:05:06.660384","MEAN_MOTION":14.13882086,"ECCENTRICITY":0.04456891,"INCLINATION":62.2949,"RA_OF_ASC_NODE":295.7795,"ARG_OF_PERICENTER":231.9059,"MEAN_ANOMALY":124.1012,"EPHEMERIS_TYPE":0,"CLASSIFICATION_TYPE":"U","NORAD_CAT_ID":3559,"ELEMENT_SET_NO":999,"REV_AT_EPOCH":82984,"BSTAR":0.00064426371,"MEAN_MOTION_DOT":3.06e-5,"MEAN_MOTION_DDOT":0}]
